STARLINK-1008           
1 44714U 19074B   24267.40371035  .00003511  00000+0  25448-3 0  9990
2 44714  53.0480  56.1408 0001933  77.9847 282.1358 15.06405920268696
STARLINK-1011           
1 44717U 19074E   24267.21022397  .00003080  00000+0  22561-3 0  9990
2 44717  53.0544  77.0079 0001382  89.3212 270.7936 15.06393671268387
STARLINK-1012           
1 44718U 19074F   24267.44794542  .00002044  00000+0  15612-3 0  9992
2 44718  53.0580  55.9445 0001827  86.9598 273.1600 15.06396476268699
STARLINK-1013           
1 44719U 19074G   24267.45531427  .00000366  00000+0  43492-4 0  9998
2 44719  53.0563  55.9115 0001573  94.3496 265.7673 15.06407850268699
STARLINK-1015           
1 44721U 19074J   24267.42956175  .00000320  00000+0  40405-4 0  9990
2 44721  53.0519  56.3672 0001444 103.5299 256.5850 15.06405268268682
STARLINK-1019           
1 44724U 19074M   24267.11251276  .00000510  00000+0  53151-4 0  9992
2 44724  53.0534  57.4453 0001474  90.1148 270.0009 15.06399778268649
STARLINK-1020           
1 44725U 19074N   24267.44978359  .00001259  00000+0  10339-3 0  9998
2 44725  53.0507  75.9322 0001785  82.0400 278.0792 15.06407093268418
STARLINK-1021           
1 44726U 19074P   24267.44057717  .00002865  00000+0  21117-3 0  9995
2 44726  53.0528  55.9750 0001278  88.5719 271.5416 15.06395361268691
STARLINK-1028           
1 44733U 19074W   24266.83976886  .00006290  00000+0  44061-3 0  9991
2 44733  53.0535  58.6704 0001142  79.9507 280.1611 15.06415558268431
STARLINK-1029           
1 44734U 19074X   24267.51798366  .00006139  00000+0  43066-3 0  9999
2 44734  53.0547 335.6309 0001498  88.6513 271.4647 15.06399304269806
STARLINK-1030           
1 44735U 19074Y   24267.44609878  .00001277  00000+0  10462-3 0  9993
2 44735  53.0513  75.9508 0001308  92.5872 267.5267 15.06396873268415
STARLINK-1031           
1 44736U 19074Z   24267.46084825  .00001513  00000+0  12045-3 0  9997
2 44736  53.0523  75.8823 0001498  93.0668 267.0492 15.06391686268428
STARLINK-1032           
1 44737U 19074AA  24267.47190936  .00000435  00000+0  48096-4 0  9998
2 44737  53.0544  75.8320 0001292 100.0280 260.0855 15.06399171268428
STARLINK-1036           
1 44741U 19074AE  24267.21389074  .00001647  00000+0  12944-3 0  9996
2 44741  53.0520  76.9893 0001968  92.9207 267.2007 15.06402635268385
STARLINK-1038           
1 44743U 19074AG  24267.52904023  .00001340  00000+0  10887-3 0  9993
2 44743  53.0474  95.5738 0001738  90.8069 269.3119 15.06400288268152
STARLINK-1039           
1 44744U 19074AH  24267.54009333  .00002452  00000+0  18341-3 0  9994
2 44744  53.0542  95.5321 0001854  88.1552 271.9649 15.06404910268156
STARLINK-1043           
1 44748U 19074AM  24267.25259454  .00004167  00000+0  29836-3 0  9993
2 44748  53.0536  96.8217 0001336  85.6906 274.4236 15.06409809268119
STARLINK-1047           
1 44752U 19074AR  24267.48665538  .00000371  00000+0  43776-4 0  9990
2 44752  53.0529  75.7642 0001106 115.8049 244.3054 15.06395119268429
