OBJECT_NAME,OBJECT_ID,EPOCH,MEAN_MOTION,ECCENTRICITY,INCLINATION,RA_OF_ASC_NODE,ARG_OF_PERICENTER,MEAN_ANOMALY,EPHEMERIS_TYPE,CLASSIFICATION_TYPE,NORAD_CAT_ID,ELEMENT_SET_NO,REV_AT_EPOCH,BSTAR,MEAN_MOTION_DOT,MEAN_MOTION_DDOT
STARLINK-1008,2019-074B,2024-09-23T09:41:20.574240,15.06405920,.0001933,53.0480,56.1408,77.9847,282.1358,0,U,44714,999,26852,.25448E-3,.3511E-4,0
STARLINK-1011,2019-074E,2024-09-23T05:02:43.351008,15.06393671,.0001382,53.0544,77.0079,89.3212,270.7936,0,U,44717,999,26821,.22561E-3,.308E-4,0
STARLINK-1012,2019-074F,2024-09-23T10:45:02.484288,15.06396476,.0001827,53.0580,55.9445,86.9598,273.1600,0,U,44718,999,26852,.15612E-3,.2044E-4,0
STARLINK-1013,2019-074G,2024-09-23T10:55:39.152928,15.06407850,.0001573,53.0563,55.9115,94.3496,265.7673,0,U,44719,999,26965,.43492E-4,.366E-5,0
STARLINK-1015,2019-074J,2024-09-23T10:18:34.135200,15.06405268,.0001444,53.0519,56.3672,103.5299,256.5850,0,U,44721,999,26851,.40405E-4,.32E-5,0
STARLINK-1019,2019-074M,2024-09-23T02:42:01.102464,15.06399778,.0001474,53.0534,57.4453,90.1148,270.0009,0,U,44724,999,26847,.53151E-4,.51E-5,0
STARLINK-1020,2019-074N,2024-09-23T10:47:41.302176,15.06407093,.0001785,53.0507,75.9322,82.0400,278.0792,0,U,44725,999,26824,.10339E-3,.1259E-4,0
STARLINK-1021,2019-074P,2024-09-23T10:34:25.867488,15.06395361,.0001278,53.0528,55.9750,88.5719,271.5416,0,U,44726,999,26852,.21117E-3,.2865E-4,0
STARLINK-1028,2019-074W,2024-09-22T20:09:16.029504,15.06415558,.0001142,53.0535,58.6704,79.9507,280.1611,0,U,44733,999,26843,.44061E-3,.629E-4,0
STARLINK-1029,2019-074X,2024-09-23T12:25:53.788224,15.06399304,.0001498,53.0547,335.6309,88.6513,271.4647,0,U,44734,999,26963,.43066E-3,.6139E-4,0
STARLINK-1030,2019-074Y,2024-09-23T10:42:22.934592,15.06396873,.0001308,53.0513,75.9508,92.5872,267.5267,0,U,44735,999,26824,.10462E-3,.1277E-4,0
STARLINK-1031,2019-074Z,2024-09-23T11:03:37.288800,15.06391686,.0001498,53.0523,75.8823,93.0668,267.0492,0,U,44736,999,26825,.12045E-3,.1513E-4,0
STARLINK-1032,2019-074AA,2024-09-23T11:19:32.968704,15.06399171,.0001292,53.0544,75.8320,100.0280,260.0855,0,U,44737,999,26825,.48096E-4,.435E-5,0
STARLINK-1036,2019-074AE,2024-09-23T05:08:00.159936,15.06402635,.0001968,53.0520,76.9893,92.9207,267.2007,0,U,44741,999,26821,.12944E-3,.1647E-4,0
STARLINK-1038,2019-074AG,2024-09-23T12:41:49.075872,15.06400288,.0001738,53.0474,95.5738,90.8069,269.3119,0,U,44743,999,26807,.10887E-3,.134E-4,0
STARLINK-1039,2019-074AH,2024-09-23T12:57:44.063712,15.06404910,.0001854,53.0542,95.5321,88.1552,271.9649,0,U,44744,999,26798,.18341E-3,.2452E-4,0
STARLINK-1043,2019-074AM,2024-09-23T06:03:44.168256,15.06409809,.0001336,53.0536,96.8217,85.6906,274.4236,0,U,44748,999,26794,.29836E-3,.4167E-4,0
STARLINK-1047,2019-074AR,2024-09-23T11:40:47.024832,15.06395119,.0001106,53.0529,75.7642,115.8049,244.3054,0,U,44752,999,26825,.43776E-4,.371E-5,0
